MOLNIYA 2-9             
1 07276U 74026A   20117.66333674 -.00000102  00000-0 -56803-2 0  9999
2 07276  64.0088 348.7277 6812987 288.2488  12.5805  2.45094846230197
MOLNIYA 2-10            
1 07376U 74056A   20118.34118006  .00001344  00000-0  00000+0 0  9991
2 07376  63.5303 173.6664 6742118 292.7354  11.9160  2.01125551334694
MOLNIYA 1-S             
1 07392U 74060A   20118.90294507 -.00000065  00000-0  00000-0 0  9998
2 07392   7.0002 294.1952 0008577 176.9863 144.2477  1.00198816111692
MOLNIYA 1-29            
1 07780U 75036A   20118.59618990 -.00000319  00000-0 -17932-2 0  9991
2 07780  62.9411 319.2872 7390723 287.9681   9.2270  2.00637302329952
MOLNIYA 2-14            
1 08195U 75081A   20117.80361167 -.00000177  00000-0  22043-2 0  9996
2 08195  63.0603 286.1873 7306841 292.7707   8.6826  2.02048882327153
MOLNIYA 1-32            
1 08601U 76006A   20118.11375854 -.00000044  00000-0 -10277-2 0  9999
2 08601  62.6366  58.1391 7401580 278.5045  11.4836  2.00092447 37088
MOLNIYA 1-36            
1 09880U 77021A   20117.68289883 -.00001921  00000-0  19050-4 0  9998
2 09880  62.4553  29.8626 7484920 283.9361   9.7252  2.00652605213727
MOLNIYA 3-8             
1 10455U 77105A   20116.98711432 -.00000950  00000-0  83678-3 0  9990
2 10455  62.3165 118.3004 7247212 276.0560  13.1327  2.00753321311362
MOLNIYA 1-40            
1 10925U 78055A   20118.14164118  .00000152  00000-0 -20176-1 0  9996
2 10925  62.5172 153.3190 7046491 278.0282  13.9766  2.00723591307016
MOLNIYA 3-10            
1 11057U 78095A   20118.22403839  .00000992  00000-0  24640-3 0  9995
2 11057  62.7893 336.7883 5960126 297.6589  14.8383  4.09625623351726
MOLNIYA 3-13            
1 11896U 80063A   20118.86319406 -.00000035  00000-0 -15200-1 0  9990
2 11896  62.5907 235.8136 7177004 275.4303  13.8226  2.00665718291452
MOLNIYA 1-49            
1 12156U 81009A   20118.48233306 -.00001007  00000-0 -24757-2 0  9991
2 12156  62.1665 281.4622 7230781 251.9088  22.8025  2.05710965205426
MOLNIYA 1-52            
1 13012U 81123A   20117.88348322  .00001163  00000-0  00000-0 0  9992
2 13012  63.5150  34.5787 7241944 248.5297  24.5949  2.00497213280899
MOLNIYA 1-53            
1 13070U 82015A   20117.56711180 -.00001225  00000-0  69628-4 0  9993
2 13070  62.3303 329.1196 7475587 275.3983  11.5800  2.00408048279561
MOLNIYA 3-20            
1 13875U 83015A   20117.59449718  .00001417  00000-0  31313-1 0  9994
2 13875  63.5382 107.0973 7124713 255.5921  22.5160  2.00672507208021
MOLNIYA 1-56            
1 13890U 83019A   20118.32962352  .00000368  00000-0  00000-0 0  9993
2 13890  63.2344 131.9152 7102808 260.4249  39.5371  1.99954687270993
MOLNIYA 1-62            
1 15214U 84089A   20116.25726990  .00000962  00000-0  32784-2 0  9995
2 15214  62.7236 140.3116 7259924 264.6014  16.7685  1.97950874228755
MOLNIYA 1-63            
1 15429U 84124A   20118.39911976  .00000387  00000-0  00000+0 0  9994
2 15429  63.6962 240.4811 6609852 266.7465  22.3031  2.00333439259135
MOLNIYA 3-24            
1 15738U 85040A   20117.57639236  .00000193  00000-0  19692-1 0  9994
2 15738  63.8571 213.6997 6465927 252.5052  42.9581  2.55629444283916
MOLNIYA 3-27            
1 16393U 85117A   20117.21130669  .00000178  00000-0  00000-0 0  9999
2 16393  64.6559 170.5636 6527302 257.6162  27.2343  2.12400154257566
MOLNIYA 1-69            
1 17078U 86089A   20116.64050838  .00000905  00000-0 -98492-1 0  9996
2 17078  64.1431 261.6989 6730708 266.5018  23.3688  2.00752760245127
MOLNIYA 3-31            
1 17328U 87008A   20117.31354793  .00000302  00000-0  00000-0 0  9995
2 17328  63.8310 210.7049 6695189 261.0165  23.6527  2.00659988240178
MOLNIYA 1-71            
1 18946U 88017A   20117.74081142 -.00000043  00000-0 -55820-1 0  9990
2 18946  63.5176 211.6003 6823131 261.5953 345.8057  2.00588624235418
MOLNIYA 1-75            
1 19807U 89014A   20115.91048526  .00001203  00000-0 -10139-1 0  9993
2 19807  64.3136  18.0296 7052089 271.6464  15.9528  2.00357029228366
MOLNIYA 1-80            
1 21118U 91012A   20118.10679574  .00000972  00000-0  00000-0 0  9995
2 21118  64.2973  62.3533 6860451 286.4541  12.8544  2.05235748214960
MOLNIYA 3-40            
1 21196U 91022A   20118.08526613  .00000996  00000-0  00000-0 0  9990
2 21196  64.4715  55.3200 6897334 283.4281  13.4617  2.02994873213834
MOLNIYA 1-81            
1 21426U 91043A   20117.94385507  .00000052  00000-0  00000-0 0  9991
2 21426  63.9976  82.0095 6982145 272.2373  16.3376  2.00628548211489
MOLNIYA 3-41            
1 21706U 91065A   20118.01437469 -.00000551  00000-0 -45675-1 0  9994
2 21706  64.1934 247.4874 6776023 265.0901  90.3205  2.04362715210962
MOLNIYA 3-42            
1 22178U 92067A   20115.88837902 -.00000059  00000-0  00000-0 0  9993
2 22178  64.7286 306.1918 6762822 278.1912  15.8023  2.20432572 62909
MOLNIYA 1-86            
1 22671U 93035A   20118.89792324 -.00000034  00000-0 -22981-5 0  9990
2 22671  63.1726 328.0902 4827144 355.9824   1.2758  5.62602209308382
MOLNIYA 1-87            
1 22949U 93079A   20118.26143388  .00000308  00000-0  00000+0 0  9991
2 22949  63.3881 178.0497 6841232 289.2655  12.2372  2.02881193193437
MOLNIYA 1-88            
1 23420U 94081A   20118.61462167 -.00000071  00000-0 -38939-2 0  9992
2 23420  64.0949  17.3427 6028409 294.6089  15.4796  3.34493845220825
MOLNIYA 3-47            
1 23642U 95042A   20117.41859433  .00000625  00000-0 -26134-1 0  9996
2 23642  63.2261 161.6325 6830017 288.5265  12.4726  2.01926493181248
MOLNIYA 1-90            
1 24960U 97054A   20118.70297064 -.00000076  00000-0 -64460-3 0  9991
2 24960  63.4360 351.1204 6382499 300.6391  11.7401  3.18684723183125
MOLNIYA 1-91            
1 25485U 98054A   20117.41258954 -.00000022  00000-0  10991-3 0  9997
2 25485  62.7999 282.2287 7126794 288.6451  10.5526  2.36440562159892
MOLNIYA 3-50            
1 25847U 99036A   20118.00507319  .00000405  00000-0 -39608-3 0  9999
2 25847  62.2753  99.7061 7337437 275.0428  12.7992  2.00658079152439
